{"type": "FeatureCollection", "features": [ {"type": "Feature", "properties": {"norad_id": 66939, "name": "STARLINK-36154", "group": "last-30-days", "lat": 24.563639506176475, "lon": 10.2775230068671, "alt_km": 375.80010396162197, "timestamp": "2025-12-24T18:55:54.778013+00:00", "meta": {"OBJECT_NAME": "STARLINK-36154", "OBJECT_ID": "2025-286Q", "EPOCH": "2025-12-24T06:00:02.000160", "MEAN_MOTION": 15.65322875, "ECCENTRICITY": 0.0001494, "INCLINATION": 53.1593, "RA_OF_ASC_NODE": 352.8717, "ARG_OF_PERICENTER": 90.4306, "MEAN_ANOMALY": 145.2968, "EPHEMERIS_TYPE": 0, "CLASSIFICATION_TYPE": "U", "NORAD_CAT_ID": 66939, "ELEMENT_SET_NO": 999, "REV_AT_EPOCH": 384, "BSTAR": -0.02272333, "MEAN_MOTION_DOT": -0.02023661, "MEAN_MOTION_DDOT": 0}, "tle": {"line1": "1 66939U 25286Q   25358.25002315 -.02023661  00000+0 -22723-1 0  9995", "line2": "2 66939  53.1593 352.8717 0001494  90.4306 145.2968 15.65322875  3848"}}, "geometry": {"type": "Point", "coordinates": [10.2775230068671, 24.563639506176475]}}, {"type": "Feature", "properties": {"norad_id": 66940, "name": "STARLINK-36121", "group": "last-30-days", "lat": 25.999219225382465, "lon": 11.681213197681519, "alt_km": 375.6197535782612, "timestamp": "2025-12-24T18:55:54.778023+00:00", "meta": {"OBJECT_NAME": "STARLINK-36121", "OBJECT_ID": "2025-286R", "EPOCH": "2025-12-24T06:00:02.000160", "MEAN_MOTION": 15.65328715, "ECCENTRICITY": 0.00013277, "INCLINATION": 53.1595, "RA_OF_ASC_NODE": 352.8677, "ARG_OF_PERICENTER": 90.0157, "MEAN_ANOMALY": 147.63, "EPHEMERIS_TYPE": 0, "CLASSIFICATION_TYPE": "U", "NORAD_CAT_ID": 66940, "ELEMENT_SET_NO": 999, "REV_AT_EPOCH": 384, "BSTAR": -0.022869342, "MEAN_MOTION_DOT": -0.02035337, "MEAN_MOTION_DDOT": 0}, "tle": {"line1": "1 66940U 25286R   25358.25002315 -.02035337  00000+0 -22869-1 0  9991", "line2": "2 66940  53.1595 352.8677 0001327  90.0157 147.6300 15.65328715  3847"}}, "geometry": {"type": "Point", "coordinates": [11.681213197681519, 25.999219225382465]}}, {"type": "Feature", "properties": {"norad_id": 66941, "name": "STARLINK-36088", "group": "last-30-days", "lat": 34.0213735385992, "lon": 20.615562861406552, "alt_km": 368.8922679437537, "timestamp": "2025-12-24T18:55:54.778032+00:00", "meta": {"OBJECT_NAME": "STARLINK-36088", "OBJECT_ID": "2025-286S", "EPOCH": "2025-12-24T06:00:02.000160", "MEAN_MOTION": 15.67081022, "ECCENTRICITY": 0.00013637, "INCLINATION": 53.1595, "RA_OF_ASC_NODE": 352.852, "ARG_OF_PERICENTER": 90.8406, "MEAN_ANOMALY": 154.4582, "EPHEMERIS_TYPE": 0, "CLASSIFICATION_TYPE": "U", "NORAD_CAT_ID": 66941, "ELEMENT_SET_NO": 999, "REV_AT_EPOCH": 384, "BSTAR": -0.020595124, "MEAN_MOTION_DOT": -0.01976467, "MEAN_MOTION_DDOT": 0}, "tle": {"line1": "1 66941U 25286S   25358.25002315 -.01976467  00000+0 -20595-1 0  9993", "line2": "2 66941  53.1595 352.8520 0001363  90.8406 154.4582 15.67081022  3847"}}, "geometry": {"type": "Point", "coordinates": [20.615562861406552, 34.0213735385992]}}, {"type": "Feature", "properties": {"norad_id": 66942, "name": "STARLINK-36100", "group": "last-30-days", "lat": 27.42177845743082, "lon": 13.120633724173919, "alt_km": 375.4376021626813, "timestamp": "2025-12-24T18:55:54.778042+00:00", "meta": {"OBJECT_NAME": "STARLINK-36100", "OBJECT_ID": "2025-286T", "EPOCH": "2025-12-24T06:00:02.000160", "MEAN_MOTION": 15.65330662, "ECCENTRICITY": 0.00012867, "INCLINATION": 53.1593, "RA_OF_ASC_NODE": 352.8635, "ARG_OF_PERICENTER": 95.5042, "MEAN_ANOMALY": 144.0573, "EPHEMERIS_TYPE": 0, "CLASSIFICATION_TYPE": "U", "NORAD_CAT_ID": 66942, "ELEMENT_SET_NO": 999, "REV_AT_EPOCH": 377, "BSTAR": -0.022885309, "MEAN_MOTION_DOT": -0.02036689, "MEAN_MOTION_DDOT": 0}, "tle": {"line1": "1 66942U 25286T   25358.25002315 -.02036689  00000+0 -22885-1 0  9992", "line2": "2 66942  53.1593 352.8635 0001286  95.5042 144.0573 15.65330662  3777"}}, "geometry": {"type": "Point", "coordinates": [13.120633724173919, 27.42177845743082]}}, {"type": "Feature", "properties": {"norad_id": 66943, "name": "STARLINK-36109", "group": "last-30-days", "lat": 28.828737661998506, "lon": 14.596924004393843, "alt_km": 375.20223601731686, "timestamp": "2025-12-24T18:55:54.778054+00:00", "meta": {"OBJECT_NAME": "STARLINK-36109", "OBJECT_ID": "2025-286U", "EPOCH": "2025-12-24T06:00:02.000160", "MEAN_MOTION": 15.65326305, "ECCENTRICITY": 0.00012812, "INCLINATION": 53.1594, "RA_OF_ASC_NODE": 352.8593, "ARG_OF_PERICENTER": 97.5108, "MEAN_ANOMALY": 143.9709, "EPHEMERIS_TYPE": 0, "CLASSIFICATION_TYPE": "U", "NORAD_CAT_ID": 66943, "ELEMENT_SET_NO": 999, "REV_AT_EPOCH": 377, "BSTAR": -0.022833787, "MEAN_MOTION_DOT": -0.02032355, "MEAN_MOTION_DDOT": 0}, "tle": {"line1": "1 66943U 25286U   25358.25002315 -.02032355  00000+0 -22834-1 0  9993", "line2": "2 66943  53.1594 352.8593 0001281  97.5108 143.9709 15.65326305  3770"}}, "geometry": {"type": "Point", "coordinates": [14.596924004393843, 28.828737661998506]}}, {"type": "Feature", "properties": {"norad_id": 66944, "name": "STARLINK-36112", "group": "last-30-days", "lat": 30.218190112360386, "lon": 16.112891338594576, "alt_km": 374.7968635993466, "timestamp": "2025-12-24T18:55:54.778064+00:00", "meta": {"OBJECT_NAME": "STARLINK-36112", "OBJECT_ID": "2025-286V", "EPOCH": "2025-12-24T06:00:02.000160", "MEAN_MOTION": 15.65326182, "ECCENTRICITY": 0.00014804, "INCLINATION": 53.1593, "RA_OF_ASC_NODE": 352.8553, "ARG_OF_PERICENTER": 93.1508, "MEAN_ANOMALY": 150.2405, "EPHEMERIS_TYPE": 0, "CLASSIFICATION_TYPE": "U", "NORAD_CAT_ID": 66944, "ELEMENT_SET_NO": 999, "REV_AT_EPOCH": 384, "BSTAR": -0.022754234, "MEAN_MOTION_DOT": -0.02026299, "MEAN_MOTION_DDOT": 0}, "tle": {"line1": "1 66944U 25286V   25358.25002315 -.02026299  00000+0 -22754-1 0  9995", "line2": "2 66944  53.1593 352.8553 0001480  93.1508 150.2405 15.65326182  3848"}}, "geometry": {"type": "Point", "coordinates": [16.112891338594576, 30.218190112360386]}}, {"type": "Feature", "properties": {"norad_id": 66945, "name": "STARLINK-36110", "group": "last-30-days", "lat": 31.590477277152814, "lon": 17.67287488202327, "alt_km": 374.56969419007874, "timestamp": "2025-12-24T18:55:54.778076+00:00", "meta": {"OBJECT_NAME": "STARLINK-36110", "OBJECT_ID": "2025-286W", "EPOCH": "2025-12-24T06:00:02.000160", "MEAN_MOTION": 15.65328536, "ECCENTRICITY": 0.00014153, "INCLINATION": 53.1594, "RA_OF_ASC_NODE": 352.8512, "ARG_OF_PERICENTER": 91.2968, "MEAN_ANOMALY": 154.0152, "EPHEMERIS_TYPE": 0, "CLASSIFICATION_TYPE": "U", "NORAD_CAT_ID": 66945, "ELEMENT_SET_NO": 999, "REV_AT_EPOCH": 384, "BSTAR": -0.022845601, "MEAN_MOTION_DOT": -0.02033543, "MEAN_MOTION_DDOT": 0}, "tle": {"line1": "1 66945U 25286W   25358.25002315 -.02033543  00000+0 -22846-1 0  9998", "line2": "2 66945  53.1594 352.8512 0001415  91.2968 154.0152 15.65328536  3848"}}, "geometry": {"type": "Point", "coordinates": [17.67287488202327, 31.590477277152814]}}, {"type": "Feature", "properties": {"norad_id": 66946, "name": "STARLINK-36115", "group": "last-30-days", "lat": 32.944517718318785, "lon": 19.28134889688142, "alt_km": 374.2806257156017, "timestamp": "2025-12-24T18:55:54.778086+00:00", "meta": {"OBJECT_NAME": "STARLINK-36115", "OBJECT_ID": "2025-286X", "EPOCH": "2025-12-24T06:00:02.000160", "MEAN_MOTION": 15.6532218, "ECCENTRICITY": 0.00014109, "INCLINATION": 53.1593, "RA_OF_ASC_NODE": 352.8473, "ARG_OF_PERICENTER": 89.507, "MEAN_ANOMALY": 157.7209, "EPHEMERIS_TYPE": 0, "CLASSIFICATION_TYPE": "U", "NORAD_CAT_ID": 66946, "ELEMENT_SET_NO": 999, "REV_AT_EPOCH": 384, "BSTAR": -0.022701545, "MEAN_MOTION_DOT": -0.02021843, "MEAN_MOTION_DDOT": 0}, "tle": {"line1": "1 66946U 25286X   25358.25002315 -.02021843  00000+0 -22702-1 0  9990", "line2": "2 66946  53.1593 352.8473 0001410  89.5070 157.7209 15.65322180  3845"}}, "geometry": {"type": "Point", "coordinates": [19.28134889688142, 32.944517718318785]}}, {"type": "Feature", "properties": {"norad_id": 66947, "name": "STARLINK-36089", "group": "last-30-days", "lat": 35.583162417426614, "lon": 22.645008432378784, "alt_km": 373.8832987947835, "timestamp": "2025-12-24T18:55:54.778096+00:00", "meta": {"OBJECT_NAME": "STARLINK-36089", "OBJECT_ID": "2025-286Y", "EPOCH": "2025-12-24T06:00:02.000160", "MEAN_MOTION": 15.65333179, "ECCENTRICITY": 0.00013729, "INCLINATION": 53.1595, "RA_OF_ASC_NODE": 352.8389, "ARG_OF_PERICENTER": 93.1524, "MEAN_ANOMALY": 157.9052, "EPHEMERIS_TYPE": 0, "CLASSIFICATION_TYPE": "U", "NORAD_CAT_ID": 66947, "ELEMENT_SET_NO": 999, "REV_AT_EPOCH": 384, "BSTAR": -0.022884031, "MEAN_MOTION_DOT": -0.02036839, "MEAN_MOTION_DDOT": 0}, "tle": {"line1": "1 66947U 25286Y   25358.25002315 -.02036839  00000+0 -22884-1 0  9993", "line2": "2 66947  53.1595 352.8389 0001372  93.1524 157.9052 15.65333179  3844"}}, "geometry": {"type": "Point", "coordinates": [22.645008432378784, 35.583162417426614]}}, {"type": "Feature", "properties": {"norad_id": 66948, "name": "STARLINK-36116", "group": "last-30-days", "lat": 34.27520000619015, "lon": 20.93650284431629, "alt_km": 374.11024134725085, "timestamp": "2025-12-24T18:55:54.778106+00:00", "meta": {"OBJECT_NAME": "STARLINK-36116", "OBJECT_ID": "2025-286Z", "EPOCH": "2025-12-24T06:00:02.000160", "MEAN_MOTION": 15.65327068, "ECCENTRICITY": 0.00013441, "INCLINATION": 53.1594, "RA_OF_ASC_NODE": 352.8431, "ARG_OF_PERICENTER": 90.6084, "MEAN_ANOMALY": 158.5397, "EPHEMERIS_TYPE": 0, "CLASSIFICATION_TYPE": "U", "NORAD_CAT_ID": 66948, "ELEMENT_SET_NO": 999, "REV_AT_EPOCH": 384, "BSTAR": -0.022843379, "MEAN_MOTION_DOT": -0.02033207, "MEAN_MOTION_DDOT": 0}, "tle": {"line1": "1 66948U 25286Z   25358.25002315 -.02033207  00000+0 -22843-1 0  9995", "line2": "2 66948  53.1594 352.8431 0001344  90.6084 158.5397 15.65327068  3843"}}, "geometry": {"type": "Point", "coordinates": [20.93650284431629, 34.27520000619015]}}]}